[{"OBJECT_NAME":"STARLINK-31100","OBJECT_ID":"2024-002K","EPOCH":"2026-01-13T13:06:58.289472","MEAN_MOTION":15.30209969,"ECCENTRICITY":9.579e-5,"INCLINATION":53.1593,"RA_OF_ASC_NODE":126.0022,"ARG_OF_PERICENTER":93.7337,"MEAN_ANOMALY":266.3774,"EPHEMERIS_TYPE":0,"CLASSIFICATION_TYPE":"U","NORAD_CAT_ID":58714,"ELEMENT_SET_NO":999,"REV_AT_EPOCH":11357,"BSTAR":5.9216876e-5,"MEAN_MOTION_DOT":1.396e-5,"MEAN_MOTION_DDOT":0},{"OBJECT_NAME":"STARLINK-31102","OBJECT_ID":"2024-002L","EPOCH":"2026-01-13T16:50:02.662944","MEAN_MOTION":15.30201345,"ECCENTRICITY":0.00014174,"INCLINATION":53.1589,"RA_OF_ASC_NODE":125.5403,"ARG_OF_PERICENTER":97.2674,"MEAN_ANOMALY":262.8488,"EPHEMERIS_TYPE":0,"CLASSIFICATION_TYPE":"U","NORAD_CAT_ID":58715,"ELEMENT_SET_NO":999,"REV_AT_EPOCH":11359,"BSTAR":5.6949418e-5,"MEAN_MOTION_DOT":1.328e-5,"MEAN_MOTION_DDOT":0},{"OBJECT_NAME":"STARLINK-31098","OBJECT_ID":"2024-002M","EPOCH":"2026-01-13T16:18:08.549568","MEAN_MOTION":15.30195922,"ECCENTRICITY":0.00012299,"INCLINATION":53.1606,"RA_OF_ASC_NODE":125.4072,"ARG_OF_PERICENTER":89.4582,"MEAN_ANOMALY":270.656,"EPHEMERIS_TYPE":0,"CLASSIFICATION_TYPE":"U","NORAD_CAT_ID":58716,"ELEMENT_SET_NO":999,"REV_AT_EPOCH":11359,"BSTAR":7.1096237e-5,"MEAN_MOTION_DOT":1.747e-5,"MEAN_MOTION_DDOT":0},{"OBJECT_NAME":"STARLINK-31093","OBJECT_ID":"2024-002N","EPOCH":"2026-01-13T19:36:53.455104","MEAN_MOTION":15.3020567,"ECCENTRICITY":0.00013071,"INCLINATION":53.1583,"RA_OF_ASC_NODE":124.8601,"ARG_OF_PERICENTER":76.8357,"MEAN_ANOMALY":283.279,"EPHEMERIS_TYPE":0,"CLASSIFICATION_TYPE":"U","NORAD_CAT_ID":58717,"ELEMENT_SET_NO":999,"REV_AT_EPOCH":11361,"BSTAR":0.0002252025,"MEAN_MOTION_DOT":6.318e-5,"MEAN_MOTION_DDOT":0},{"OBJECT_NAME":"STARLINK-31097","OBJECT_ID":"2024-002P","EPOCH":"2026-01-13T13:16:07.034880","MEAN_MOTION":15.30198406,"ECCENTRICITY":0.00014656,"INCLINATION":53.1601,"RA_OF_ASC_NODE":126.0403,"ARG_OF_PERICENTER":101.2832,"MEAN_ANOMALY":258.8334,"EPHEMERIS_TYPE":0,"CLASSIFICATION_TYPE":"U","NORAD_CAT_ID":58718,"ELEMENT_SET_NO":999,"REV_AT_EPOCH":11357,"BSTAR":-3.5330784e-5,"MEAN_MOTION_DOT":-1.405e-5,"MEAN_MOTION_DDOT":0},{"OBJECT_NAME":"STARLINK-31051","OBJECT_ID":"2024-002Q","EPOCH":"2026-01-13T16:31:49.100736","MEAN_MOTION":15.30188743,"ECCENTRICITY":0.00012715,"INCLINATION":53.1598,"RA_OF_ASC_NODE":125.4633,"ARG_OF_PERICENTER":105.973,"MEAN_ANOMALY":254.1411,"EPHEMERIS_TYPE":0,"CLASSIFICATION_TYPE":"U","NORAD_CAT_ID":58719,"ELEMENT_SET_NO":999,"REV_AT_EPOCH":11359,"BSTAR":7.0502928e-5,"MEAN_MOTION_DOT":1.729e-5,"MEAN_MOTION_DDOT":0},{"OBJECT_NAME":"STARLINK-31027","OBJECT_ID":"2024-002R","EPOCH":"2026-01-13T16:49:40.584288","MEAN_MOTION":15.31583199,"ECCENTRICITY":0.00017248,"INCLINATION":53.1583,"RA_OF_ASC_NODE":124.8378,"ARG_OF_PERICENTER":44.2661,"MEAN_ANOMALY":315.8478,"EPHEMERIS_TYPE":0,"CLASSIFICATION_TYPE":"U","NORAD_CAT_ID":58720,"ELEMENT_SET_NO":999,"REV_AT_EPOCH":11360,"BSTAR":0.00034971296,"MEAN_MOTION_DOT":0.00010463,"MEAN_MOTION_DDOT":0},{"OBJECT_NAME":"STARLINK-30972","OBJECT_ID":"2024-002S","EPOCH":"2026-01-13T13:03:57.475008","MEAN_MOTION":15.30198174,"ECCENTRICITY":0.00013346,"INCLINATION":53.161,"RA_OF_ASC_NODE":125.9854,"ARG_OF_PERICENTER":96.3931,"MEAN_ANOMALY":263.7221,"EPHEMERIS_TYPE":0,"CLASSIFICATION_TYPE":"U","NORAD_CAT_ID":58721,"ELEMENT_SET_NO":999,"REV_AT_EPOCH":11357,"BSTAR":-3.202069e-6,"MEAN_MOTION_DOT":-4.54e-6,"MEAN_MOTION_DDOT":0},{"OBJECT_NAME":"STARLINK-31040","OBJECT_ID":"2024-002T","EPOCH":"2026-01-13T13:28:16.354560","MEAN_MOTION":15.30192808,"ECCENTRICITY":0.00012332,"INCLINATION":53.1596,"RA_OF_ASC_NODE":126.0877,"ARG_OF_PERICENTER":91.3863,"MEAN_ANOMALY":268.7279,"EPHEMERIS_TYPE":0,"CLASSIFICATION_TYPE":"U","NORAD_CAT_ID":58722,"ELEMENT_SET_NO":999,"REV_AT_EPOCH":11357,"BSTAR":5.699872e-6,"MEAN_MOTION_DOT":-1.9e-6,"MEAN_MOTION_DDOT":0},{"OBJECT_NAME":"STARLINK-31033","OBJECT_ID":"2024-002U","EPOCH":"2026-01-13T16:22:41.781792","MEAN_MOTION":15.30196769,"ECCENTRICITY":0.00013362,"INCLINATION":53.1611,"RA_OF_ASC_NODE":125.4221,"ARG_OF_PERICENTER":88.2714,"MEAN_ANOMALY":271.844,"EPHEMERIS_TYPE":0,"CLASSIFICATION_TYPE":"U","NORAD_CAT_ID":58723,"ELEMENT_SET_NO":999,"REV_AT_EPOCH":11359,"BSTAR":5.4513925e-5,"MEAN_MOTION_DOT":1.255e-5,"MEAN_MOTION_DDOT":0},{"OBJECT_NAME":"STARLINK-30893","OBJECT_ID":"2024-002V","EPOCH":"2026-01-13T13:46:29.140032","MEAN_MOTION":15.30266635,"ECCENTRICITY":0.00020248,"INCLINATION":53.1608,"RA_OF_ASC_NODE":126.1736,"ARG_OF_PERICENTER":116.7346,"MEAN_ANOMALY":243.3862,"EPHEMERIS_TYPE":0,"CLASSIFICATION_TYPE":"U","NORAD_CAT_ID":58724,"ELEMENT_SET_NO":999,"REV_AT_EPOCH":11356,"BSTAR":-0.00047898969,"MEAN_MOTION_DOT":-0.00014549,"MEAN_MOTION_DDOT":0},{"OBJECT_NAME":"STARLINK-30856","OBJECT_ID":"2024-002W","EPOCH":"2026-01-13T16:16:37.391520","MEAN_MOTION":15.30192953,"ECCENTRICITY":0.00014397,"INCLINATION":53.1628,"RA_OF_ASC_NODE":125.4008,"ARG_OF_PERICENTER":79.176,"MEAN_ANOMALY":280.9402,"EPHEMERIS_TYPE":0,"CLASSIFICATION_TYPE":"U","NORAD_CAT_ID":58725,"ELEMENT_SET_NO":999,"REV_AT_EPOCH":11359,"BSTAR":7.2169101e-5,"MEAN_MOTION_DOT":1.778e-5,"MEAN_MOTION_DDOT":0},{"OBJECT_NAME":"STARLINK-31115","OBJECT_ID":"2024-005B","EPOCH":"2026-01-13T16:41:46.507488","MEAN_MOTION":15.02533297,"ECCENTRICITY":0.00012601,"INCLINATION":43.0025,"RA_OF_ASC_NODE":160.0503,"ARG_OF_PERICENTER":269.4226,"MEAN_ANOMALY":90.6472,"EPHEMERIS_TYPE":0,"CLASSIFICATION_TYPE":"U","NORAD_CAT_ID":58729,"ELEMENT_SET_NO":999,"REV_AT_EPOCH":11214,"BSTAR":1.936141e-5,"MEAN_MOTION_DOT":5.8e-7,"MEAN_MOTION_DDOT":0},{"OBJECT_NAME":"STARLINK-31180","OBJECT_ID":"2024-005E","EPOCH":"2026-01-13T09:21:29.835360","MEAN_MOTION":15.02533937,"ECCENTRICITY":0.0001394,"INCLINATION":43.0027,"RA_OF_ASC_NODE":162.0668,"ARG_OF_PERICENTER":267.2344,"MEAN_ANOMALY":92.8339,"EPHEMERIS_TYPE":0,"CLASSIFICATION_TYPE":"U","NORAD_CAT_ID":58732,"ELEMENT_SET_NO":999,"REV_AT_EPOCH":11209,"BSTAR":3.8474e-5,"MEAN_MOTION_DOT":3.16e-6,"MEAN_MOTION_DDOT":0},{"OBJECT_NAME":"STARLINK-31164","OBJECT_ID":"2024-005F","EPOCH":"2026-01-13T16:37:10.619328","MEAN_MOTION":15.02517414,"ECCENTRICITY":0.00010348,"INCLINATION":43.0069,"RA_OF_ASC_NODE":160.8891,"ARG_OF_PERICENTER":265.2818,"MEAN_ANOMALY":94.7906,"EPHEMERIS_TYPE":0,"CLASSIFICATION_TYPE":"U","NORAD_CAT_ID":58733,"ELEMENT_SET_NO":999,"REV_AT_EPOCH":11213,"BSTAR":-0.00011242218,"MEAN_MOTION_DOT":-1.721e-5,"MEAN_MOTION_DDOT":0},{"OBJECT_NAME":"STARLINK-31152","OBJECT_ID":"2024-005G","EPOCH":"2026-01-13T11:45:11.783808","MEAN_MOTION":15.02523361,"ECCENTRICITY":0.0001344,"INCLINATION":43.0028,"RA_OF_ASC_NODE":161.9449,"ARG_OF_PERICENTER":270.8598,"MEAN_ANOMALY":89.2091,"EPHEMERIS_TYPE":0,"CLASSIFICATION_TYPE":"U","NORAD_CAT_ID":58734,"ELEMENT_SET_NO":999,"REV_AT_EPOCH":11211,"BSTAR":0.00011871,"MEAN_MOTION_DOT":1.4e-5,"MEAN_MOTION_DDOT":0}]
