STARLINK-31100          
1 58714U 24002K   26013.54650798  .00001396  00000+0  59217-4 0  9995
2 58714  53.1593 126.0022 0000957  93.7337 266.3774 15.30209969113575
STARLINK-31102          
1 58715U 24002L   26013.70141971  .00001328  00000+0  56949-4 0  9996
2 58715  53.1589 125.5403 0001417  97.2674 262.8488 15.30201345113598
STARLINK-31098          
1 58716U 24002M   26013.67926562  .00001747  00000+0  71096-4 0  9995
2 58716  53.1606 125.4072 0001229  89.4582 270.6560 15.30195922113593
STARLINK-31093          
1 58717U 24002N   26013.81728536  .00006318  00000+0  22520-3 0  9999
2 58717  53.1583 124.8601 0001307  76.8357 283.2790 15.30205670113616
STARLINK-31097          
1 58718U 24002P   26013.55285920 -.00001405  00000+0 -35331-4 0  9995
2 58718  53.1601 126.0403 0001465 101.2832 258.8334 15.30198406113573
STARLINK-31051          
1 58719U 24002Q   26013.68876274  .00001729  00000+0  70503-4 0  9995
2 58719  53.1598 125.4633 0001271 105.9730 254.1411 15.30188743113590
STARLINK-31027          
1 58720U 24002R   26013.70116417  .00010463  00000+0  34971-3 0  9999
2 58720  53.1583 124.8378 0001724  44.2661 315.8478 15.31583199113601
STARLINK-30972          
1 58721U 24002S   26013.54441522 -.00000454  00000+0 -32021-5 0  9997
2 58721  53.1610 125.9854 0001334  96.3931 263.7221 15.30198174113576
STARLINK-31040          
1 58722U 24002T   26013.56130040 -.00000190  00000+0  56999-5 0  9996
2 58722  53.1596 126.0877 0001233  91.3863 268.7279 15.30192808113570
STARLINK-31033          
1 58723U 24002U   26013.68242803  .00001255  00000+0  54514-4 0  9993
2 58723  53.1611 125.4221 0001336  88.2714 271.8440 15.30196769113596
STARLINK-30893          
1 58724U 24002V   26013.57394838 -.00014549  00000+0 -47899-3 0  9997
2 58724  53.1608 126.1736 0002024 116.7346 243.3862 15.30266635113564
STARLINK-30856          
1 58725U 24002W   26013.67821055  .00001778  00000+0  72169-4 0  9992
2 58725  53.1628 125.4008 0001439  79.1760 280.9402 15.30192953113593
STARLINK-31115          
1 58729U 24005B   26013.69567717  .00000058  00000+0  19361-4 0  9998
2 58729  43.0025 160.0503 0001260 269.4226  90.6472 15.02533297112146
STARLINK-31180          
1 58732U 24005E   26013.38992865  .00000316  00000+0  38474-4 0  9997
2 58732  43.0027 162.0668 0001394 267.2344  92.8339 15.02533937112092
STARLINK-31164          
1 58733U 24005F   26013.69248402 -.00001721  00000+0 -11242-3 0  9999
2 58733  43.0069 160.8891 0001034 265.2818  94.7906 15.02517414112136
STARLINK-31152          
1 58734U 24005G   26013.48971972  .00001400  00000+0  11871-3 0  9992
2 58734  43.0028 161.9449 0001344 270.8598  89.2091 15.02523361112114
